{
  "type": "FeatureCollection",
  "features": [
    {
      "type": "Feature",
      "properties": {
        "norad_id": 36198,
        "name": "FENGYUN 1C DEB",
        "group": "fengyun-1c-debris",
        "lat": 50.39331830662934,
        "lon": -147.1703866969927,
        "alt_km": 801.8539160022219,
        "timestamp": "2025-12-19T04:59:48.593918+00:00",
        "meta_object_name": "FENGYUN 1C DEB",
        "meta_object_id": "1999-025DTX",
        "meta_epoch": "2025-12-17T13:10:00.796512",
        "meta_mean_motion": 14.07925497,
        "meta_eccentricity": 0.00967795,
        "meta_inclination": 98.6216,
        "meta_ra_of_asc_node": 20.6795,
        "meta_arg_of_pericenter": 101.8825,
        "meta_mean_anomaly": 259.3217,
        "meta_ephemeris_type": 0,
        "meta_classification_type": "U",
        "meta_norad_cat_id": 36198,
        "meta_element_set_no": 999,
        "meta_rev_at_epoch": 63655,
        "meta_bstar": 0.0010670002,
        "meta_mean_motion_dot": 1.851e-05,
        "meta_mean_motion_ddot": 0,
        "tle_line1": "1 36198U 99025DTX 25351.54862033  .00001851  00000+0  10670-2 0  9999",
        "tle_line2": "2 36198  98.6216  20.6795 0096779 101.8825 259.3217 14.07925497636555"
      },
      "geometry": {
        "type": "Point",
        "coordinates": [
          -147.1703866969927,
          50.39331830662934
        ]
      }
    },
    {
      "type": "Feature",
      "properties": {
        "norad_id": 36199,
        "name": "FENGYUN 1C DEB",
        "group": "fengyun-1c-debris",
        "lat": 53.95070626165016,
        "lon": -154.4082372268608,
        "alt_km": 771.773411212187,
        "timestamp": "2025-12-19T04:59:48.593928+00:00",
        "meta_object_name": "FENGYUN 1C DEB",
        "meta_object_id": "1999-025DTY",
        "meta_epoch": "2025-12-18T08:15:57.064608",
        "meta_mean_motion": 14.29657674,
        "meta_eccentricity": 0.00927225,
        "meta_inclination": 98.2891,
        "meta_ra_of_asc_node": 13.2155,
        "meta_arg_of_pericenter": 51.0967,
        "meta_mean_anomaly": 309.8439,
        "meta_ephemeris_type": 0,
        "meta_classification_type": "U",
        "meta_norad_cat_id": 36199,
        "meta_element_set_no": 999,
        "meta_rev_at_epoch": 65060,
        "meta_bstar": 0.00022092184,
        "meta_mean_motion_dot": 5.52e-06,
        "meta_mean_motion_ddot": 0,
        "tle_line1": "1 36199U 99025DTY 25352.34441047  .00000552  00000+0  22092-3 0  9996",
        "tle_line2": "2 36199  98.2891  13.2155 0092722  51.0967 309.8439 14.29657674650608"
      },
      "geometry": {
        "type": "Point",
        "coordinates": [
          -154.4082372268608,
          53.95070626165016
        ]
      }
    },
    {
      "type": "Feature",
      "properties": {
        "norad_id": 36200,
        "name": "FENGYUN 1C DEB",
        "group": "fengyun-1c-debris",
        "lat": -47.92008681411585,
        "lon": -122.55790299924941,
        "alt_km": 714.6968932049049,
        "timestamp": "2025-12-19T04:59:48.593938+00:00",
        "meta_object_name": "FENGYUN 1C DEB",
        "meta_object_id": "1999-025DTZ",
        "meta_epoch": "2025-12-18T11:29:22.430976",
        "meta_mean_motion": 14.58881296,
        "meta_eccentricity": 0.0033465,
        "meta_inclination": 99.3865,
        "meta_ra_of_asc_node": 67.1748,
        "meta_arg_of_pericenter": 349.3047,
        "meta_mean_anomaly": 10.7433,
        "meta_ephemeris_type": 0,
        "meta_classification_type": "U",
        "meta_norad_cat_id": 36200,
        "meta_element_set_no": 999,
        "meta_rev_at_epoch": 73444,
        "meta_bstar": 0.0036002477,
        "meta_mean_motion_dot": 0.00016973,
        "meta_mean_motion_ddot": 0,
        "tle_line1": "1 36200U 99025DTZ 25352.47873184  .00016973  00000+0  36002-2 0  9993",
        "tle_line2": "2 36200  99.3865  67.1748 0033465 349.3047  10.7433 14.58881296734449"
      },
      "geometry": {
        "type": "Point",
        "coordinates": [
          -122.55790299924941,
          -47.92008681411585
        ]
      }
    },
    {
      "type": "Feature",
      "properties": {
        "norad_id": 36203,
        "name": "FENGYUN 1C DEB",
        "group": "fengyun-1c-debris",
        "lat": -61.59244592881934,
        "lon": -44.95314982657927,
        "alt_km": 698.6856578863026,
        "timestamp": "2025-12-19T04:59:48.593948+00:00",
        "meta_object_name": "FENGYUN 1C DEB",
        "meta_object_id": "1999-025DUC",
        "meta_epoch": "2025-12-16T02:34:12.047232",
        "meta_mean_motion": 14.78467362,
        "meta_eccentricity": 0.00836343,
        "meta_inclination": 99.0958,
        "meta_ra_of_asc_node": 294.3166,
        "meta_arg_of_pericenter": 138.0502,
        "meta_mean_anomaly": 222.7152,
        "meta_ephemeris_type": 0,
        "meta_classification_type": "U",
        "meta_norad_cat_id": 36203,
        "meta_element_set_no": 999,
        "meta_rev_at_epoch": 63479,
        "meta_bstar": 0.00071031238,
        "meta_mean_motion_dot": 5.428e-05,
        "meta_mean_motion_ddot": 0,
        "tle_line1": "1 36203U 99025DUC 25350.10708388  .00005428  00000+0  71031-3 0  9992",
        "tle_line2": "2 36203  99.0958 294.3166 0083634 138.0502 222.7152 14.78467362634798"
      },
      "geometry": {
        "type": "Point",
        "coordinates": [
          -44.95314982657927,
          -61.59244592881934
        ]
      }
    },
    {
      "type": "Feature",
      "properties": {
        "norad_id": 36204,
        "name": "FENGYUN 1C DEB",
        "group": "fengyun-1c-debris",
        "lat": 50.05963958833948,
        "lon": -77.95473259512715,
        "alt_km": 757.9542911226017,
        "timestamp": "2025-12-19T04:59:48.593958+00:00",
        "meta_object_name": "FENGYUN 1C DEB",
        "meta_object_id": "1999-025DUD",
        "meta_epoch": "2025-12-18T13:20:00.059136",
        "meta_mean_motion": 14.34614464,
        "meta_eccentricity": 0.00199968,
        "meta_inclination": 99.2911,
        "meta_ra_of_asc_node": 90.0697,
        "meta_arg_of_pericenter": 146.8615,
        "meta_mean_anomaly": 213.3824,
        "meta_ephemeris_type": 0,
        "meta_classification_type": "U",
        "meta_norad_cat_id": 36204,
        "meta_element_set_no": 999,
        "meta_rev_at_epoch": 94511,
        "meta_bstar": 0.00093098152,
        "meta_mean_motion_dot": 2.588e-05,
        "meta_mean_motion_ddot": 0,
        "tle_line1": "1 36204U 99025DUD 25352.55555624  .00002588  00000+0  93098-3 0  9998",
        "tle_line2": "2 36204  99.2911  90.0697 0019996 146.8615 213.3824 14.34614464945114"
      },
      "geometry": {
        "type": "Point",
        "coordinates": [
          -77.95473259512715,
          50.05963958833948
        ]
      }
    },
    {
      "type": "Feature",
      "properties": {
        "norad_id": 36206,
        "name": "FENGYUN 1C DEB",
        "group": "fengyun-1c-debris",
        "lat": -21.171936242850038,
        "lon": -167.20436279646657,
        "alt_km": 845.4861802289042,
        "timestamp": "2025-12-19T04:59:48.593969+00:00",
        "meta_object_name": "FENGYUN 1C DEB",
        "meta_object_id": "1999-025DUF",
        "meta_epoch": "2025-12-16T08:29:03.735744",
        "meta_mean_motion": 14.21592437,
        "meta_eccentricity": 0.00302163,
        "meta_inclination": 98.4786,
        "meta_ra_of_asc_node": 13.3653,
        "meta_arg_of_pericenter": 8.6843,
        "meta_mean_anomaly": 351.4852,
        "meta_ephemeris_type": 0,
        "meta_classification_type": "U",
        "meta_norad_cat_id": 36206,
        "meta_element_set_no": 999,
        "meta_rev_at_epoch": 64472,
        "meta_bstar": 0.00060166506,
        "meta_mean_motion_dot": 1.283e-05,
        "meta_mean_motion_ddot": 0,
        "tle_line1": "1 36206U 99025DUF 25350.35351546  .00001283  00000+0  60167-3 0  9995",
        "tle_line2": "2 36206  98.4786  13.3653 0030216   8.6843 351.4852 14.21592437644722"
      },
      "geometry": {
        "type": "Point",
        "coordinates": [
          -167.20436279646657,
          -21.171936242850038
        ]
      }
    },
    {
      "type": "Feature",
      "properties": {
        "norad_id": 36211,
        "name": "FENGYUN 1C DEB",
        "group": "fengyun-1c-debris",
        "lat": 77.94339338343214,
        "lon": -58.27701371021573,
        "alt_km": 913.6596171028023,
        "timestamp": "2025-12-19T04:59:48.593979+00:00",
        "meta_object_name": "FENGYUN 1C DEB",
        "meta_object_id": "1999-025DUL",
        "meta_epoch": "2025-12-18T20:10:39.792576",
        "meta_mean_motion": 14.26010505,
        "meta_eccentricity": 0.0266827,
        "meta_inclination": 98.5043,
        "meta_ra_of_asc_node": 345.8346,
        "meta_arg_of_pericenter": 210.9186,
        "meta_mean_anomaly": 147.6049,
        "meta_ephemeris_type": 0,
        "meta_classification_type": "U",
        "meta_norad_cat_id": 36211,
        "meta_element_set_no": 999,
        "meta_rev_at_epoch": 94456,
        "meta_bstar": 0.00031120509,
        "meta_mean_motion_dot": 1.029e-05,
        "meta_mean_motion_ddot": 0,
        "tle_line1": "1 36211U 99025DUL 25352.84073834  .00001029  00000+0  31121-3 0  9994",
        "tle_line2": "2 36211  98.5043 345.8346 0266827 210.9186 147.6049 14.26010505944568"
      },
      "geometry": {
        "type": "Point",
        "coordinates": [
          -58.27701371021573,
          77.94339338343214
        ]
      }
    }
  ]
}